NORAD_CAT_ID,OBJECT_NAME,OBJECT_TYPE,EPOCH,MEAN_MOTION,ECCENTRICITY,INCLINATION,RA_OF_ASC_NODE,ARG_OF_PERICENTER,MEAN_ANOMALY,BSTAR,MEAN_MOTION_DOT,MEAN_MOTION_DDOT,TLE_LINE0,TLE_LINE1,TLE_LINE2,SEMIMAJOR_AXIS,PERIOD,APOGEE,PERIGEE,DECAYED
51147.0,STARLINK-3352,PAYLOAD,2024-01-01 23:03:21,15.08836833,0.0001484,53.2192,290.2676,97.686,262.4301,6.5142e-05,7.49e-06,0.0,0 STARLINK-3352,1 51147U 22005AV  24001.96066727  .00000749  00000-0  65142-4 0  9999,2 51147  53.2192 290.2676 0001484  97.6860 262.4301 15.08836833108166,6917.89,95.438,540.782,538.728,0.0
51147.0,STARLINK-3352,PAYLOAD,2024-01-02 00:38:44,15.08838185,0.0001466,53.2187,289.97,94.8352,265.2807,7.7352e-05,9.43e-06,0.0,0 STARLINK-3352,1 51147U 22005AV  24002.02690625  .00000943  00000-0  77352-4 0  9999,2 51147  53.2187 289.9700 0001466  94.8352 265.2807 15.08838185109297,6917.886,95.438,540.765,538.737,0.0
51147.0,STARLINK-3352,PAYLOAD,2024-01-03 03:40:17,15.08845373,0.0001393,53.2177,284.9147,90.532,269.5832,8.0848e-05,9.99e-06,0.0,0 STARLINK-3352,1 51147U 22005AV  24003.15298226  .00000999  00000-0  80848-4 0  9990,2 51147  53.2177 284.9147 0001393  90.5320 269.5832 15.08845373109464,6917.864,95.437,540.693,538.765,0.0
51147.0,STARLINK-3352,PAYLOAD,2024-01-03 05:15:40,15.08845491,0.0001396,53.2177,284.6174,90.8122,269.303,8.0788e-05,9.98e-06,0.0,0 STARLINK-3352,1 51147U 22005AV  24003.21922202  .00000998  00000-0  80788-4 0  9997,2 51147  53.2177 284.6174 0001396  90.8122 269.3030 15.08845491108353,6917.864,95.437,540.694,538.763,0.0
51147.0,STARLINK-3352,PAYLOAD,2024-01-03 22:44:55,15.08836386,0.000146,53.2177,281.3457,98.7814,261.3344,8.9497e-06,-1.46e-06,0.0,0 STARLINK-3352,1 51147U 22005AV  24003.94787012 -.00000146  00000-0  89497-5 0  9998,2 51147  53.2177 281.3457 0001460  98.7814 261.3344 15.08836386108463,6917.891,95.438,540.766,538.746,0.0
51147.0,STARLINK-3352,PAYLOAD,2024-01-04 03:31:04,15.08845616,0.0001576,53.2183,280.4533,92.0383,268.079,3.0904e-05,2.04e-06,0.0,0 STARLINK-3352,1 51147U 22005AV  24004.14658419  .00000204  00000-0  30904-4 0  9991,2 51147  53.2183 280.4533 0001576  92.0383 268.0790 15.08845616109614,6917.863,95.437,540.818,538.638,0.0
51147.0,STARLINK-3352,PAYLOAD,2024-01-04 22:35:42,15.08839206,0.0001407,53.2171,276.8856,97.6718,262.4434,-2.7954e-05,-7.33e-06,0.0,0 STARLINK-3352,1 51147U 22005AV  24004.94146968 -.00000733  00000-0 -27954-4 0  9990,2 51147  53.2171 276.8856 0001407  97.6718 262.4434 15.08839206108614,6917.883,95.438,540.721,538.774,0.0
51147.0,STARLINK-3352,PAYLOAD,2024-01-05 03:21:51,15.08846074,0.0001405,53.2168,275.994,97.112,263.0032,2.8527e-05,1.66e-06,0.0,0 STARLINK-3352,1 51147U 22005AV  24005.14018276  .00000166  00000-0  28527-4 0  9998,2 51147  53.2168 275.9940 0001405  97.1120 263.0032 15.08846074108649,6917.862,95.437,540.699,538.755,0.0
51147.0,STARLINK-3352,PAYLOAD,2024-01-05 17:40:20,15.08836694,0.0001514,53.2165,273.3179,99.4319,260.6844,5.0722e-05,5.19e-06,0.0,0 STARLINK-3352,1 51147U 22005AV  24005.73634870  .00000519  00000-0  50722-4 0  9991,2 51147  53.2165 273.3179 0001514  99.4319 260.6844 15.08836694109853,6917.89,95.438,540.803,538.708,0.0
51147.0,STARLINK-3352,PAYLOAD,2024-01-05 22:26:29,15.08842194,0.0001437,53.2166,272.4257,96.289,263.8266,1.8663e-05,9e-08,0.0,0 STARLINK-3352,1 51147U 22005AV  24005.93506684  .00000009  00000-0  18663-4 0  9996,2 51147  53.2166 272.4257 0001437  96.2890 263.8266 15.08842194108768,6917.874,95.437,540.733,538.745,0.0
51147.0,STARLINK-3352,PAYLOAD,2024-01-06 03:12:38,15.08845608,0.0001427,53.2165,271.5329,101.7461,258.3691,4.2829e-05,3.94e-06,0.0,0 STARLINK-3352,1 51147U 22005AV  24006.13378328  .00000394  00000-0  42829-4 0  9999,2 51147  53.2165 271.5329 0001427 101.7461 258.3691 15.08845608109914,6917.863,95.437,540.715,538.741,0.0
51147.0,STARLINK-3352,PAYLOAD,2024-01-06 17:31:07,15.08834807,0.0001441,53.2163,268.8563,103.4671,256.6482,-8.0533e-06,-4.16e-06,0.0,0 STARLINK-3352,1 51147U 22005AV  24006.72995277 -.00000416  00000-0 -80533-5 0  9994,2 51147  53.2163 268.8563 0001441 103.4671 256.6482 15.08834807110009,6917.896,95.438,540.758,538.764,0.0
51147.0,STARLINK-3352,PAYLOAD,2024-01-06 22:17:17,15.0883823,0.0001449,53.2163,267.9659,89.1039,271.0119,-7.2626e-06,-4.04e-06,0.0,0 STARLINK-3352,1 51147U 22005AV  24006.92867164 -.00000404  00000-0 -72626-5 0  9990,2 51147  53.2163 267.9659 0001449  89.1039 271.0119 15.08838230108910,6917.886,95.438,540.753,538.748,0.0
51147.0,STARLINK-3352,PAYLOAD,2024-01-06 23:52:40,15.08838049,0.0001441,53.2164,267.6686,88.0525,272.0632,-3.2092e-06,-3.39e-06,0.0,0 STARLINK-3352,1 51147U 22005AV  24006.99491168 -.00000339  00000-0 -32092-5 0  9994,2 51147  53.2164 267.6686 0001441  88.0525 272.0632 15.08838049108928,6917.886,95.438,540.748,538.754,0.0
51147.0,STARLINK-3352,PAYLOAD,2024-01-07 22:08:04,15.08839574,0.0001406,53.2165,263.5056,82.1073,278.0078,3.6739e-05,2.97e-06,0.0,0 STARLINK-3352,1 51147U 22005AV  24007.92227059  .00000297  00000-0  36739-4 0  9996,2 51147  53.2165 263.5056 0001406  82.1073 278.0078 15.08839574109069,6917.882,95.438,540.719,538.774,0.0
51147.0,STARLINK-3352,PAYLOAD,2024-01-07 23:43:27,15.08841808,0.0001443,53.2164,263.2079,84.4527,275.663,4.8747e-05,4.88e-06,0.0,0 STARLINK-3352,1 51147U 22005AV  24007.98850872  .00000488  00000-0  48747-4 0  9991,2 51147  53.2164 263.2079 0001443  84.4527 275.6630 15.08841808110196,6917.875,95.437,540.738,538.742,0.0
51147.0,STARLINK-3352,PAYLOAD,2024-01-08 21:58:51,15.08836255,0.0001539,53.2174,259.0442,102.1949,257.9215,3.7495e-05,3.09e-06,0.0,0 STARLINK-3352,1 51147U 22005AV  24008.91587332  .00000309  00000-0  37495-4 0  9993,2 51147  53.2174 259.0442 0001539 102.1949 257.9215 15.08836255109219,6917.892,95.438,540.821,538.692,0.0
51147.0,STARLINK-3352,PAYLOAD,2024-01-08 23:34:14,15.08836559,0.0001519,53.2173,258.7468,100.5361,259.5802,3.836e-05,3.23e-06,0.0,0 STARLINK-3352,1 51147U 22005AV  24008.98211329  .00000323  00000-0  38360-4 0  9998,2 51147  53.2173 258.7468 0001519 100.5361 259.5802 15.08836559110343,6917.891,95.438,540.807,538.705,0.0
51147.0,STARLINK-3352,PAYLOAD,2024-01-09 21:49:38,15.08837872,0.0001575,53.2174,254.5829,105.5331,254.5836,2.1651e-05,5.7e-07,0.0,0 STARLINK-3352,1 51147U 22005AV  24009.90947453  .00000057  00000-0  21651-4 0  9994,2 51147  53.2174 254.5829 0001575 105.5331 254.5836 15.08837872109364,6917.887,95.438,540.841,538.662,0.0
51147.0,STARLINK-3352,PAYLOAD,2024-01-10 23:15:48,15.08844615,0.0001247,53.2164,249.8257,86.9422,273.1713,5.3621e-05,5.66e-06,0.0,0 STARLINK-3352,1 51147U 22005AV  24010.96931215  .00000566  00000-0  53621-4 0  9998,2 51147  53.2164 249.8257 0001247  86.9422 273.1713 15.08844615110641,6917.866,95.437,540.594,538.869,0.0
51147.0,STARLINK-3352,PAYLOAD,2024-01-11 19:55:49,15.08838559,0.0001313,53.2168,245.9604,85.7497,274.3645,7.1308e-05,8.47e-06,0.0,0 STARLINK-3352,1 51147U 22005AV  24011.83043602  .00000847  00000-0  71308-4 0  9993,2 51147  53.2168 245.9604 0001313  85.7497 274.3645 15.08838559110772,6917.885,95.438,540.658,538.841,0.0
51147.0,STARLINK-3352,PAYLOAD,2024-01-11 21:31:12,15.08844159,0.0001569,53.2166,245.6646,68.6772,291.4388,3.546e-05,2.76e-06,0.0,0 STARLINK-3352,1 51147U 22005AV  24011.89667468  .00000276  00000-0  35460-4 0  9996,2 51147  53.2166 245.6646 0001569  68.6772 291.4388 15.08844159109665,6917.868,95.437,540.818,538.647,0.0
51147.0,STARLINK-3352,PAYLOAD,2024-01-12 00:41:58,15.08847757,0.0001398,53.2171,245.0657,98.3935,261.7216,0.00010137,1.326e-05,0.0,0 STARLINK-3352,1 51147U 22005AV  24012.02914816  .00001326  00000-0  10137-3 0  9994,2 51147  53.2171 245.0657 0001398  98.3935 261.7216 15.08847757110803,6917.857,95.437,540.689,538.755,0.0
51147.0,STARLINK-3352,PAYLOAD,2024-01-12 15:00:27,15.08835182,0.0001507,53.2167,242.3927,72.7572,287.3585,-2.4577e-05,-6.79e-06,0.0,0 STARLINK-3352,1 51147U 22005AV  24012.62532387 -.00000679  00000-0 -24577-4 0  9995,2 51147  53.2167 242.3927 0001507  72.7572 287.3585 15.08835182109779,6917.895,95.438,540.803,538.718,0.0
51147.0,STARLINK-3352,PAYLOAD,2024-01-12 19:46:37,15.08831748,0.000153,53.2164,241.5018,57.1219,302.9921,-3.8872e-05,-9.06e-06,0.0,0 STARLINK-3352,1 51147U 22005AV  24012.82404754 -.00000906  00000-0 -38872-4 0  9999,2 51147  53.2164 241.5018 0001530  57.1219 302.9921 15.08831748110920,6917.906,95.438,540.829,538.712,0.0
51147.0,STARLINK-3352,PAYLOAD,2024-01-12 21:22:00,15.08825741,0.0001376,53.2157,241.1986,133.3703,226.7404,0.00013582,1.874e-05,0.0,0 STARLINK-3352,1 51147U 22005AV  24012.89028104  .00001874  00000-0  13582-3 0  9990,2 51147  53.2157 241.1986 0001376 133.3703 226.7404 15.08825741109816,6917.924,95.438,540.741,538.837,0.0
51147.0,STARLINK-3352,PAYLOAD,2024-01-13 00:32:46,15.08838318,0.0001444,53.2166,240.607,71.9281,288.1868,1.3259e-05,-7.7e-07,0.0,0 STARLINK-3352,1 51147U 22005AV  24013.02276181 -.00000077  00000-0  13259-4 0  9993,2 51147  53.2166 240.6070 0001444  71.9281 288.1868 15.08838318110955,6917.886,95.438,540.749,538.752,0.0
51147.0,STARLINK-3352,PAYLOAD,2024-01-13 19:37:23,15.08848254,0.0001278,53.2161,237.038,92.1849,267.9289,6.5189e-05,7.5e-06,0.0,0 STARLINK-3352,1 51147U 22005AV  24013.81763378  .00000750  00000-0  65189-4 0  9995,2 51147  53.2161 237.0380 0001278  92.1849 267.9289 15.08848254111070,6917.855,95.437,540.604,538.836,0.0
51147.0,STARLINK-3352,PAYLOAD,2024-01-14 14:42:01,15.08841615,0.0001426,53.216,233.47,74.1628,285.9521,0.00013147,1.805e-05,0.0,0 STARLINK-3352,1 51147U 22005AV  24014.61251772  .00001805  00000-0  13147-3 0  9992,2 51147  53.2160 233.4700 0001426  74.1628 285.9521 15.08841615110077,6917.875,95.437,540.727,538.754,0.0
51147.0,STARLINK-3352,PAYLOAD,2024-01-14 19:28:10,15.08842917,0.0001345,53.2159,232.5777,80.1628,279.9516,0.00013882,1.922e-05,0.0,0 STARLINK-3352,1 51147U 22005AV  24014.81123649  .00001922  00000-0  13882-3 0  9991,2 51147  53.2159 232.5777 0001345  80.1628 279.9516 15.08842917111227,6917.871,95.437,540.667,538.806,0.0
